NORAD_CAT_ID,OBJECT_NAME,OBJECT_TYPE,EPOCH,MEAN_MOTION,ECCENTRICITY,INCLINATION,RA_OF_ASC_NODE,ARG_OF_PERICENTER,MEAN_ANOMALY,BSTAR,MEAN_MOTION_DOT,MEAN_MOTION_DDOT,TLE_LINE0,TLE_LINE1,TLE_LINE2,SEMIMAJOR_AXIS,PERIOD,APOGEE,PERIGEE,DECAYED
52000.0,STARLINK-3653,PAYLOAD,2024-02-08 09:06:59,15.08847451,0.0001239,53.2159,192.1932,70.3478,289.7648,0.00016444,2.331e-05,0.0,0 STARLINK-3653,1 52000U 22025AW  24039.37985612  .00002331  00000-0  16444-3 0  9998,2 52000  53.2159 192.1932 0001239  70.3478 289.7648 15.08847451107673,6917.858,95.437,540.58,538.865,0.0
52000.0,STARLINK-3653,PAYLOAD,2024-02-08 13:53:08,15.08856943,0.0001311,53.2168,191.3069,86.0504,274.0638,0.00023464,3.45e-05,0.0,0 STARLINK-3653,1 52000U 22025AW  24039.57856704  .00003450  00000-0  23464-3 0  9992,2 52000  53.2168 191.3069 0001311  86.0504 274.0638 15.08856943106176,6917.829,95.436,540.601,538.787,0.0
52000.0,STARLINK-3653,PAYLOAD,2024-02-08 17:03:54,15.08854749,0.0001372,53.217,190.715,74.5686,285.5458,0.00022434,3.286e-05,0.0,0 STARLINK-3653,1 52000U 22025AW  24039.71104878  .00003286  00000-0  22434-3 0  9999,2 52000  53.2170 190.7150 0001372  74.5686 285.5458 15.08854749107724,6917.835,95.437,540.649,538.751,0.0
52000.0,STARLINK-3653,PAYLOAD,2024-02-09 13:43:57,15.08825849,0.0001335,53.2167,186.8454,87.9055,272.209,0.00027114,4.028e-05,0.0,0 STARLINK-3653,1 52000U 22025AW  24040.57219414  .00004028  00000-0  27114-3 0  9993,2 52000  53.2167 186.8454 0001335  87.9055 272.2090 15.08825849106329,6917.924,95.438,540.712,538.865,0.0
52000.0,STARLINK-3653,PAYLOAD,2024-02-09 15:19:20,15.08827263,0.0001343,53.2173,186.5483,89.3128,270.8018,0.00027256,4.051e-05,0.0,0 STARLINK-3653,1 52000U 22025AW  24040.63843356  .00004051  00000-0  27256-3 0  9991,2 52000  53.2173 186.5483 0001343  89.3128 270.8018 15.08827263107867,6917.919,95.438,540.713,538.855,0.0
52000.0,STARLINK-3653,PAYLOAD,2024-02-10 08:48:34,15.08861934,0.0001928,53.2174,183.2757,102.1373,257.9835,-0.00015152,-2.7e-05,0.0,0 STARLINK-3653,1 52000U 22025AW  24041.36706041 -.00002700  00000-0 -15152-3 0  9994,2 52000  53.2174 183.2757 0001928 102.1373 257.9835 15.08861934107979,6917.813,95.436,541.012,538.345,0.0
52000.0,STARLINK-3653,PAYLOAD,2024-02-10 13:34:43,15.08858299,0.0001372,53.2176,182.3868,96.7207,263.3941,-1.7431e-05,-5.66e-06,0.0,0 STARLINK-3653,1 52000U 22025AW  24041.56577654 -.00000566  00000-0 -17431-4 0  9993,2 52000  53.2176 182.3868 0001372  96.7207 263.3941 15.08858299106474,6917.824,95.436,540.639,538.74,0.0
52000.0,STARLINK-3653,PAYLOAD,2024-02-10 18:20:51,15.08862816,0.000152,53.2166,181.4924,94.2975,265.8191,9.615e-05,1.243e-05,0.0,0 STARLINK-3653,1 52000U 22025AW  24041.76448978  .00001243  00000-0  96150-4 0  9997,2 52000  53.2166 181.4924 0001520  94.2975 265.8191 15.08862816106504,6917.811,95.436,540.727,538.624,0.0
52000.0,STARLINK-3653,PAYLOAD,2024-02-11 13:25:29,15.08848353,0.0001619,53.2156,177.9259,115.0293,245.0867,9.9592e-05,1.298e-05,0.0,0 STARLINK-3653,1 52000U 22025AW  24042.55937381  .00001298  00000-0  99592-4 0  9999,2 52000  53.2156 177.9259 0001619 115.0293 245.0867 15.08848353106621,6917.855,95.437,540.84,538.6,0.0
52000.0,STARLINK-3653,PAYLOAD,2024-02-11 18:11:38,15.08861246,0.0001246,53.2162,177.0322,86.5499,273.5636,0.00034362,5.188e-05,0.0,0 STARLINK-3653,1 52000U 22025AW  24042.75808906  .00005188  00000-0  34362-3 0  9996,2 52000  53.2162 177.0322 0001246  86.5499 273.5636 15.08861246108185,6917.815,95.436,540.542,538.818,0.0
52000.0,STARLINK-3653,PAYLOAD,2024-02-12 08:30:07,15.08848357,0.0001226,53.2163,174.3532,104.3045,255.8083,-3.3457e-05,-8.2e-06,0.0,0 STARLINK-3653,1 52000U 22025AW  24043.35425030 -.00000820  00000-0 -33457-4 0  9991,2 52000  53.2163 174.3532 0001226 104.3045 255.8083 15.08848357108270,6917.855,95.437,540.568,538.872,0.0
52000.0,STARLINK-3653,PAYLOAD,2024-02-12 14:51:39,15.08853245,0.0001568,53.216,173.1651,106.9958,253.1206,0.00014291,1.988e-05,0.0,0 STARLINK-3653,1 52000U 22025AW  24043.61920597  .00001988  00000-0  14291-3 0  9996,2 52000  53.2160 173.1651 0001568 106.9958 253.1206 15.08853245106780,6917.84,95.437,540.79,538.62,0.0
52000.0,STARLINK-3653,PAYLOAD,2024-02-13 11:31:41,15.08835722,0.0001419,53.216,169.3001,101.653,258.4621,-9.8236e-05,-1.851e-05,0.0,0 STARLINK-3653,1 52000U 22025AW  24044.48033688 -.00001851  00000-0 -98236-4 0  9991,2 52000  53.2160 169.3001 0001419 101.6530 258.4621 15.08835722108443,6917.893,95.438,540.74,538.777,0.0
52000.0,STARLINK-3653,PAYLOAD,2024-02-13 14:42:27,15.08834047,0.0001374,53.2155,168.7054,95.573,264.5418,-7.846e-05,-1.536e-05,0.0,0 STARLINK-3653,1 52000U 22025AW  24044.61281854 -.00001536  00000-0 -78460-4 0  9993,2 52000  53.2155 168.7054 0001374  95.5730 264.5418 15.08834047106934,6917.899,95.438,540.714,538.813,0.0
52000.0,STARLINK-3653,PAYLOAD,2024-02-13 17:53:13,15.08836114,0.0001411,53.2151,168.1093,98.8747,261.2405,1.9485e-05,2.2e-07,0.0,0 STARLINK-3653,1 52000U 22025AW  24044.74529860  .00000022  00000-0  19485-4 0  9998,2 52000  53.2151 168.1093 0001411  98.8747 261.2405 15.08836114106952,6917.892,95.438,540.733,538.781,0.0
52000.0,STARLINK-3653,PAYLOAD,2024-02-14 14:33:14,15.08858855,0.0001562,53.2147,164.2441,95.9808,264.1362,0.00069732,0.00010833,0.0,0 STARLINK-3653,1 52000U 22025AW  24045.60641520  .00010833  00000-0  69732-3 0  9992,2 52000  53.2147 164.2441 0001562  95.9808 264.1362 15.08858855107089,6917.823,95.436,540.768,538.607,0.0
52000.0,STARLINK-3653,PAYLOAD,2024-02-15 11:13:15,15.088416,0.0001225,53.214,160.3797,100.9764,259.1366,0.00014635,2.042e-05,0.0,0 STARLINK-3653,1 52000U 22025AW  24046.46754055  .00002042  00000-0  14635-3 0  9990,2 52000  53.2140 160.3797 0001225 100.9764 259.1366 15.08841600108749,6917.875,95.437,540.588,538.893,0.0
52000.0,STARLINK-3653,PAYLOAD,2024-02-15 14:24:01,15.08843862,0.0001103,53.215,159.7835,80.876,279.2357,0.00044084,6.736e-05,0.0,0 STARLINK-3653,1 52000U 22025AW  24046.60002091  .00006736  00000-0  44084-3 0  9997,2 52000  53.2150 159.7835 0001103  80.8760 279.2357 15.08843862107230,6917.869,95.437,540.497,538.971,0.0
52000.0,STARLINK-3653,PAYLOAD,2024-02-15 17:34:48,15.08846988,0.0001132,53.2151,159.1888,69.9515,290.1599,0.0007084,0.00011006,0.0,0 STARLINK-3653,1 52000U 22025AW  24046.73250130  .00011006  00000-0  70840-3 0  9995,2 52000  53.2151 159.1888 0001132  69.9515 290.1599 15.08846988107255,6917.859,95.437,540.507,538.941,0.0
52000.0,STARLINK-3653,PAYLOAD,2024-02-16 12:39:25,15.08851437,0.0001184,53.2145,155.6196,59.9802,300.1308,0.00065801,0.00010203,0.0,0 STARLINK-3653,1 52000U 22025AW  24047.52738085  .00010203  00000-0  65801-3 0  9992,2 52000  53.2145 155.6196 0001184  59.9802 300.1308 15.08851437108904,6917.845,95.437,540.53,538.891,0.0
52000.0,STARLINK-3653,PAYLOAD,2024-02-16 14:14:48,15.08850098,0.0001101,53.2146,155.3246,75.5382,284.5732,0.0013903,0.00021914,0.0,0 STARLINK-3653,1 52000U 22025AW  24047.59362092  .00021914  00000-0  13903-2 0  9996,2 52000  53.2146 155.3246 0001101  75.5382 284.5732 15.08850098107383,6917.85,95.437,540.476,538.953,0.0
52000.0,STARLINK-3653,PAYLOAD,2024-02-17 10:54:49,15.08844162,9.36e-05,53.2146,151.4586,17.5539,342.5486,0.00035813,5.417e-05,0.0,0 STARLINK-3653,1 52000U 22025AW  24048.45474277  .00005417  00000-0  35813-3 0  9996,2 52000  53.2146 151.4586 0000936  17.5539 342.5486 15.08844162109043,6917.868,95.437,540.38,539.085,0.0
52000.0,STARLINK-3653,PAYLOAD,2024-02-17 14:05:35,15.08847063,0.0001,53.2137,150.8625,49.4792,310.6287,0.00049134,7.542e-05,0.0,0 STARLINK-3653,1 52000U 22025AW  24048.58722186  .00007542  00000-0  49134-3 0  9997,2 52000  53.2137 150.8625 0001000  49.4792 310.6287 15.08847063107538,6917.859,95.437,540.416,539.032,0.0
52000.0,STARLINK-3653,PAYLOAD,2024-02-17 15:40:59,15.08849922,0.0001114,53.2151,150.567,82.2487,277.8631,0.00057129,8.818e-05,0.0,0 STARLINK-3653,1 52000U 22025AW  24048.65346109  .00008818  00000-0  57129-3 0  9992,2 52000  53.2151 150.5670 0001114  82.2487 277.8631 15.08849922107547,6917.85,95.437,540.486,538.944,0.0
52000.0,STARLINK-3653,PAYLOAD,2024-02-17 23:37:55,15.08833053,0.0001445,53.2151,149.0809,89.5571,270.5587,0.00028679,4.278e-05,0.0,0 STARLINK-3653,1 52000U 22025AW  24048.98466587  .00004278  00000-0  28679-3 0  9995,2 52000  53.2151 149.0809 0001445  89.5571 270.5587 15.08833053109129,6917.902,95.438,540.766,538.767,0.0
52000.0,STARLINK-3653,PAYLOAD,2024-02-18 13:56:23,15.08837695,0.000167,53.2161,146.4049,83.4526,276.6656,0.00045603,6.977e-05,0.0,0 STARLINK-3653,1 52000U 22025AW  24049.58082964  .00006977  00000-0  45603-3 0  9999,2 52000  53.2161 146.4049 0001670  83.4526 276.6656 15.08837695107689,6917.887,95.438,540.908,538.597,0.0
52000.0,STARLINK-3653,PAYLOAD,2024-02-18 15:31:46,15.08839642,0.0001573,53.2153,146.1054,77.0324,283.0843,0.00053463,8.231e-05,0.0,0 STARLINK-3653,1 52000U 22025AW  24049.64706939  .00008231  00000-0  53463-3 0  9999,2 52000  53.2153 146.1054 0001573  77.0324 283.0843 15.08839642107695,6917.881,95.438,540.835,538.658,0.0
52000.0,STARLINK-3653,PAYLOAD,2024-02-19 12:11:47,15.08837704,0.000132,53.2138,142.242,91.7008,268.4135,0.00017788,2.544e-05,0.0,0 STARLINK-3653,1 52000U 22025AW  24050.50819105  .00002544  00000-0  17788-3 0  9997,2 52000  53.2138 142.2420 0001320  91.7008 268.4135 15.08837704109357,6917.887,95.438,540.666,538.839,0.0
52000.0,STARLINK-3653,PAYLOAD,2024-02-19 13:47:10,15.0884252,0.00014,53.2143,141.9442,91.8287,268.2866,0.00024628,3.634e-05,0.0,0 STARLINK-3653,1 52000U 22025AW  24050.57442959  .00003634  00000-0  24628-3 0  9995,2 52000  53.2143 141.9442 0001400  91.8287 268.2866 15.08842520107834,6917.873,95.437,540.706,538.769,0.0
52000.0,STARLINK-3653,PAYLOAD,2024-02-20 12:02:35,15.08840782,0.0001712,53.2175,137.7816,85.8757,274.2431,0.00016666,2.365e-05,0.0,0 STARLINK-3653,1 52000U 22025AW  24051.50179441  .00002365  00000-0  16666-3 0  9995,2 52000  53.2175 137.7816 0001712  85.8757 274.2431 15.08840782107976,6917.878,95.438,540.927,538.559,0.0
